{
  "type": "FeatureCollection",
  "features": [
    {
      "type": "Feature",
      "properties": {
        "norad_id": 66793,
        "name": "STARLINK-36051",
        "group": "last-30-days",
        "lat": -27.481670953179844,
        "lon": -165.3355301075967,
        "alt_km": 341.2257139193962,
        "timestamp": "2025-12-16T13:52:36.287449+00:00",
        "meta_object_name": "STARLINK-36051",
        "meta_object_id": "2025-278C",
        "meta_epoch": "2025-12-15T22:00:01.999584",
        "meta_mean_motion": 15.78576111,
        "meta_eccentricity": 0.00014676,
        "meta_inclination": 42.9977,
        "meta_ra_of_asc_node": 232.6297,
        "meta_arg_of_pericenter": 269.6472,
        "meta_mean_anomaly": 246.1081,
        "meta_ephemeris_type": 0,
        "meta_classification_type": "U",
        "meta_norad_cat_id": 66793,
        "meta_element_set_no": 999,
        "meta_rev_at_epoch": 337,
        "meta_bstar": -0.0079332716,
        "meta_mean_motion_dot": -0.01258355,
        "meta_mean_motion_ddot": 0,
        "tle_line1": "1 66793U 25278C   25349.91668981 -.01258355  00000+0 -79333-2 0  9993",
        "tle_line2": "2 66793  42.9977 232.6297 0001467 269.6472 246.1081 15.78576111  3373"
      },
      "geometry": {
        "type": "Point",
        "coordinates": [
          -165.3355301075967,
          -27.481670953179844
        ]
      }
    },
    {
      "type": "Feature",
      "properties": {
        "norad_id": 66794,
        "name": "STARLINK-36062",
        "group": "last-30-days",
        "lat": -28.627352446179362,
        "lon": -167.25544399041098,
        "alt_km": 340.92233056492023,
        "timestamp": "2025-12-16T13:52:36.287461+00:00",
        "meta_object_name": "STARLINK-36062",
        "meta_object_id": "2025-278D",
        "meta_epoch": "2025-12-15T22:00:01.999584",
        "meta_mean_motion": 15.78612597,
        "meta_eccentricity": 0.00016393,
        "meta_inclination": 42.9979,
        "meta_ra_of_asc_node": 232.6349,
        "meta_arg_of_pericenter": 278.0135,
        "meta_mean_anomaly": 235.6014,
        "meta_ephemeris_type": 0,
        "meta_classification_type": "U",
        "meta_norad_cat_id": 66794,
        "meta_element_set_no": 999,
        "meta_rev_at_epoch": 346,
        "meta_bstar": -0.0079027351,
        "meta_mean_motion_dot": -0.0125603,
        "meta_mean_motion_ddot": 0,
        "tle_line1": "1 66794U 25278D   25349.91668981 -.01256030  00000+0 -79027-2 0  9992",
        "tle_line2": "2 66794  42.9979 232.6349 0001639 278.0135 235.6014 15.78612597  3463"
      },
      "geometry": {
        "type": "Point",
        "coordinates": [
          -167.25544399041098,
          -28.627352446179362
        ]
      }
    },
    {
      "type": "Feature",
      "properties": {
        "norad_id": 66795,
        "name": "STARLINK-36047",
        "group": "last-30-days",
        "lat": -26.257217059312875,
        "lon": -163.3727714000682,
        "alt_km": 341.30014847133316,
        "timestamp": "2025-12-16T13:52:36.287474+00:00",
        "meta_object_name": "STARLINK-36047",
        "meta_object_id": "2025-278E",
        "meta_epoch": "2025-12-15T22:00:01.999584",
        "meta_mean_motion": 15.78502841,
        "meta_eccentricity": 0.00015418,
        "meta_inclination": 42.9976,
        "meta_ra_of_asc_node": 232.6238,
        "meta_arg_of_pericenter": 274.3105,
        "meta_mean_anomaly": 243.7828,
        "meta_ephemeris_type": 0,
        "meta_classification_type": "U",
        "meta_norad_cat_id": 66795,
        "meta_element_set_no": 999,
        "meta_rev_at_epoch": 337,
        "meta_bstar": -0.0080345509,
        "meta_mean_motion_dot": -0.01268786,
        "meta_mean_motion_ddot": 0,
        "tle_line1": "1 66795U 25278E   25349.91668981 -.01268786  00000+0 -80346-2 0  9990",
        "tle_line2": "2 66795  42.9976 232.6238 0001541 274.3105 243.7828 15.78502841  3379"
      },
      "geometry": {
        "type": "Point",
        "coordinates": [
          -163.3727714000682,
          -26.257217059312875
        ]
      }
    },
    {
      "type": "Feature",
      "properties": {
        "norad_id": 66796,
        "name": "STARLINK-35964",
        "group": "last-30-days",
        "lat": 37.168368328984066,
        "lon": -78.10946199764146,
        "alt_km": 316.15507999319743,
        "timestamp": "2025-12-16T13:52:36.287484+00:00",
        "meta_object_name": "STARLINK-35964",
        "meta_object_id": "2025-278F",
        "meta_epoch": "2025-12-15T22:00:01.999584",
        "meta_mean_motion": 15.8720461,
        "meta_eccentricity": 7.642e-05,
        "meta_inclination": 42.9936,
        "meta_ra_of_asc_node": 231.4944,
        "meta_arg_of_pericenter": 273.9665,
        "meta_mean_anomaly": 328.7361,
        "meta_ephemeris_type": 0,
        "meta_classification_type": "U",
        "meta_norad_cat_id": 66796,
        "meta_element_set_no": 999,
        "meta_rev_at_epoch": 330,
        "meta_bstar": -0.011881737,
        "meta_mean_motion_dot": -0.02719054,
        "meta_mean_motion_ddot": 0,
        "tle_line1": "1 66796U 25278F   25349.91668981 -.02719054  00000+0 -11882-1 0  9999",
        "tle_line2": "2 66796  42.9936 231.4944 0000764 273.9665 328.7361 15.87204610  3301"
      },
      "geometry": {
        "type": "Point",
        "coordinates": [
          -78.10946199764146,
          37.168368328984066
        ]
      }
    },
    {
      "type": "Feature",
      "properties": {
        "norad_id": 66797,
        "name": "STARLINK-36099",
        "group": "last-30-days",
        "lat": -23.73860895958126,
        "lon": -159.57961106297722,
        "alt_km": 341.6634391106336,
        "timestamp": "2025-12-16T13:52:36.287494+00:00",
        "meta_object_name": "STARLINK-36099",
        "meta_object_id": "2025-278G",
        "meta_epoch": "2025-12-15T22:00:01.999584",
        "meta_mean_motion": 15.78345675,
        "meta_eccentricity": 0.00014966,
        "meta_inclination": 42.9977,
        "meta_ra_of_asc_node": 232.6118,
        "meta_arg_of_pericenter": 277.314,
        "meta_mean_anomaly": 245.4603,
        "meta_ephemeris_type": 0,
        "meta_classification_type": "U",
        "meta_norad_cat_id": 66797,
        "meta_element_set_no": 999,
        "meta_rev_at_epoch": 352,
        "meta_bstar": -0.0082132912,
        "meta_mean_motion_dot": -0.01309092,
        "meta_mean_motion_ddot": 0,
        "tle_line1": "1 66797U 25278G   25349.91668981 -.01309092  00000+0 -82133-2 0  9994",
        "tle_line2": "2 66797  42.9977 232.6118 0001496 277.3140 245.4603 15.78345675  3527"
      },
      "geometry": {
        "type": "Point",
        "coordinates": [
          -159.57961106297722,
          -23.73860895958126
        ]
      }
    },
    {
      "type": "Feature",
      "properties": {
        "norad_id": 66798,
        "name": "STARLINK-36041",
        "group": "last-30-days",
        "lat": -22.534994139999032,
        "lon": -157.86531471642434,
        "alt_km": 341.7299846875376,
        "timestamp": "2025-12-16T13:52:36.287504+00:00",
        "meta_object_name": "STARLINK-36041",
        "meta_object_id": "2025-278H",
        "meta_epoch": "2025-12-15T22:00:01.999584",
        "meta_mean_motion": 15.78325512,
        "meta_eccentricity": 0.00016081,
        "meta_inclination": 42.9978,
        "meta_ra_of_asc_node": 232.6065,
        "meta_arg_of_pericenter": 273.1474,
        "meta_mean_anomaly": 251.6825,
        "meta_ephemeris_type": 0,
        "meta_classification_type": "U",
        "meta_norad_cat_id": 66798,
        "meta_element_set_no": 999,
        "meta_rev_at_epoch": 330,
        "meta_bstar": -0.0083019311,
        "meta_mean_motion_dot": -0.01320719,
        "meta_mean_motion_ddot": 0,
        "tle_line1": "1 66798U 25278H   25349.91668981 -.01320719  00000+0 -83019-2 0  9998",
        "tle_line2": "2 66798  42.9978 232.6065 0001608 273.1474 251.6825 15.78325512  3308"
      },
      "geometry": {
        "type": "Point",
        "coordinates": [
          -157.86531471642434,
          -22.534994139999032
        ]
      }
    },
    {
      "type": "Feature",
      "properties": {
        "norad_id": 66799,
        "name": "STARLINK-36044",
        "group": "last-30-days",
        "lat": -21.27943050353895,
        "lon": -156.13458068393672,
        "alt_km": 341.9452953615237,
        "timestamp": "2025-12-16T13:52:36.287514+00:00",
        "meta_object_name": "STARLINK-36044",
        "meta_object_id": "2025-278J",
        "meta_epoch": "2025-12-15T22:00:01.999584",
        "meta_mean_motion": 15.78280674,
        "meta_eccentricity": 0.00014414,
        "meta_inclination": 42.9978,
        "meta_ra_of_asc_node": 232.6013,
        "meta_arg_of_pericenter": 269.7765,
        "meta_mean_anomaly": 257.2076,
        "meta_ephemeris_type": 0,
        "meta_classification_type": "U",
        "meta_norad_cat_id": 66799,
        "meta_element_set_no": 999,
        "meta_rev_at_epoch": 346,
        "meta_bstar": -0.0083320876,
        "meta_mean_motion_dot": -0.01322502,
        "meta_mean_motion_ddot": 0,
        "tle_line1": "1 66799U 25278J   25349.91668981 -.01322502  00000+0 -83321-2 0  9997",
        "tle_line2": "2 66799  42.9978 232.6013 0001441 269.7765 257.2076 15.78280674  3467"
      },
      "geometry": {
        "type": "Point",
        "coordinates": [
          -156.13458068393672,
          -21.27943050353895
        ]
      }
    }
  ]
}